[{"OBJECT_NAME":"STARLINK-2564","OBJECT_ID":"2021-036J","EPOCH":"2026-03-09T09:42:02.625984","MEAN_MOTION":15.30187265,"ECCENTRICITY":0.00015457,"INCLINATION":53.1593,"RA_OF_ASC_NODE":77.1004,"ARG_OF_PERICENTER":91.2892,"MEAN_ANOMALY":268.8285,"EPHEMERIS_TYPE":0,"CLASSIFICATION_TYPE":"U","NORAD_CAT_ID":48284,"ELEMENT_SET_NO":999,"REV_AT_EPOCH":26835,"BSTAR":-7.3525621e-5,"MEAN_MOTION_DOT":-2.535e-5,"MEAN_MOTION_DDOT":0},{"OBJECT_NAME":"CZ-6A DEB","OBJECT_ID":"2022-151EM","EPOCH":"2026-03-09T21:12:10.844640","MEAN_MOTION":15.1479521,"ECCENTRICITY":0.00732342,"INCLINATION":98.809,"RA_OF_ASC_NODE":212.6624,"ARG_OF_PERICENTER":10.5605,"MEAN_ANOMALY":349.714,"EPHEMERIS_TYPE":0,"CLASSIFICATION_TYPE":"U","NORAD_CAT_ID":54413,"ELEMENT_SET_NO":999,"REV_AT_EPOCH":17915,"BSTAR":0.0020661814,"MEAN_MOTION_DOT":0.00041137,"MEAN_MOTION_DDOT":0}]
